{
  "norad_id": 67218,
  "name": "STARLINK-36211",
  "history": [
    {
      "epoch": "2026-03-28T12:08:09.056832Z",
      "apogee_km": 574.7212753643134,
      "perigee_km": 569.3442070423334,
      "latitude_deg": -6.198831837192566e-07,
      "longitude_deg": 119.0280255896675,
      "height_km": 574.5487584633545,
      "semi_major_axis_km": 6950.169741203323,
      "eccentricity": 0.00038683,
      "inclination_deg": 70.0008,
      "raan_deg": 126.9909,
      "arg_perigee_deg": 268.1311,
      "mean_anomaly_deg": 91.9405,
      "mean_motion_rev_day": 14.98337486
    },
    {
      "epoch": "2026-03-29T04:09:29.710656Z",
      "apogee_km": 574.7031809724649,
      "perigee_km": 569.3571124032323,
      "latitude_deg": -6.161838811451612e-05,
      "longitude_deg": -123.64917093836257,
      "height_km": 574.5604426020249,
      "semi_major_axis_km": 6950.167146687848,
      "eccentricity": 0.0003846,
      "inclination_deg": 70.0009,
      "raan_deg": 125.3078,
      "arg_perigee_deg": 267.8139,
      "mean_anomaly_deg": 92.2579,
      "mean_motion_rev_day": 14.98338325
    },
    {
      "epoch": "2026-03-30T02:35:22.546176Z",
      "apogee_km": 574.7195655104651,
      "perigee_km": 569.3540313380809,
      "latitude_deg": 2.8622063044736374e-06,
      "longitude_deg": -103.39701758489024,
      "height_km": 574.5548067999051,
      "semi_major_axis_km": 6950.173798424273,
      "eccentricity": 0.000386,
      "inclination_deg": 70.0009,
      "raan_deg": 122.9513,
      "arg_perigee_deg": 268.0845,
      "mean_anomaly_deg": 91.9872,
      "mean_motion_rev_day": 14.98336174
    }
  ]
}